{
    "links": {
        "self": "http://www.neowsapp.com/rest/v1/neo/3467148?api_key=iIulBulltgU6a56xZRHN4H3l9WmuAYTsLGpBGhQ2"
    },
    "id": "3467148",
    "neo_reference_id": "3467148",
    "name": "(2009 RZ3)",
    "designation": "2009 RZ3",
    "nasa_jpl_url": "http://ssd.jpl.nasa.gov/sbdb.cgi?sstr=3467148",
    "absolute_magnitude_h": 18.7,
    "estimated_diameter": {
        "kilometers": {
            "estimated_diameter_min": 0.4836764882,
            "estimated_diameter_max": 1.0815335068
        },
        "meters": {
            "estimated_diameter_min": 483.6764882185,
            "estimated_diameter_max": 1081.533506775
        },
        "miles": {
            "estimated_diameter_min": 0.3005425432,
            "estimated_diameter_max": 0.6720335566
        },
        "feet": {
            "estimated_diameter_min": 1586.8651696069,
            "estimated_diameter_max": 3548.3383903678
        }
    },
    "is_potentially_hazardous_asteroid": true,
    "close_approach_data": [
        {
            "close_approach_date": "2000-03-23",
            "close_approach_date_full": "2000-Mar-23 12:54",
            "epoch_date_close_approach": 953816040000,
            "relative_velocity": {
                "kilometers_per_second": "39.7434828801",
                "kilometers_per_hour": "143076.5383684914",
                "miles_per_hour": "88902.1968545773"
            },
            "miss_distance": {
                "astronomical": "0.359881064",
                "lunar": "139.993733896",
                "kilometers": "53837440.62773368",
                "miles": "33453034.368257584"
            },
            "orbiting_body": "Earth"
        },
        {
            "close_approach_date": "2010-02-11",
            "close_approach_date_full": "2010-Feb-11 21:58",
            "epoch_date_close_approach": 1265925480000,
            "relative_velocity": {
                "kilometers_per_second": "28.2864352389",
                "kilometers_per_hour": "101831.1668601448",
                "miles_per_hour": "63273.9269859605"
            },
            "miss_distance": {
                "astronomical": "0.4736057358",
                "lunar": "184.2326312262",
                "kilometers": "70850409.295462746",
                "miles": "44024402.8975120548"
            },
            "orbiting_body": "Earth"
        },
        {
            "close_approach_date": "2023-03-24",
            "close_approach_date_full": "2023-Mar-24 23:24",
            "epoch_date_close_approach": 1679700240000,
            "relative_velocity": {
                "kilometers_per_second": "40.1258286349",
                "kilometers_per_hour": "144452.983085789",
                "miles_per_hour": "89757.4660735004"
            },
            "miss_distance": {
                "astronomical": "0.3792323484",
                "lunar": "147.5213835276",
                "kilometers": "56732351.555737908",
                "miles": "35251848.6067948104"
            },
            "orbiting_body": "Earth"
        },
        {
            "close_approach_date": "2033-02-12",
            "close_approach_date_full": "2033-Feb-12 16:56",
            "epoch_date_close_approach": 1991840160000,
            "relative_velocity": {
                "kilometers_per_second": "28.3761679322",
                "kilometers_per_hour": "102154.2045557602",
                "miles_per_hour": "63474.6500474389"
            },
            "miss_distance": {
                "astronomical": "0.452879111",
                "lunar": "176.169974179",
                "kilometers": "67749750.37309357",
                "miles": "42097742.783568466"
            },
            "orbiting_body": "Earth"
        }
    ],
    "orbital_data": {
        "orbit_id": "20",
        "orbit_determination_date": "2017-04-06 09:00:05",
        "first_observation_date": "2009-09-14",
        "last_observation_date": "2009-10-25",
        "data_arc_in_days": 41,
        "observations_used": 78,
        "orbit_uncertainty": "6",
        "minimum_orbit_intersection": ".0439057",
        "jupiter_tisserand_invariant": "2.937",
        "epoch_osculation": "2459000.5",
        "eccentricity": ".6753553900915913",
        "semi_major_axis": "2.210065163866125",
        "inclination": "52.6581279906223",
        "ascending_node_longitude": "344.7249070855971",
        "orbital_period": "1200.068525286938",
        "perihelion_distance": ".7174857429954816",
        "perihelion_argument": "114.2336115774553",
        "aphelion_distance": "3.702644584736769",
        "perihelion_time": "2458794.224495517525",
        "mean_anomaly": "61.87911777449182",
        "mean_motion": ".2999828696564837",
        "equinox": "J2000",
        "orbit_class": {
            "orbit_class_type": "APO",
            "orbit_class_description": "Near-Earth asteroid orbits which cross the Earth’s orbit similar to that of 1862 Apollo",
            "orbit_class_range": "a (semi-major axis) > 1.0 AU; q (perihelion) < 1.017 AU"
        }
    },
    "is_sentry_object": false
}